NORAD_CAT_ID,OBJECT_NAME,OBJECT_TYPE,EPOCH,MEAN_MOTION,ECCENTRICITY,INCLINATION,RA_OF_ASC_NODE,ARG_OF_PERICENTER,MEAN_ANOMALY,BSTAR,MEAN_MOTION_DOT,MEAN_MOTION_DDOT,TLE_LINE0,TLE_LINE1,TLE_LINE2,SEMIMAJOR_AXIS,PERIOD,APOGEE,PERIGEE,DECAYED
54203.0,STARLINK-5247,PAYLOAD,2024-01-20 19:01:21,15.08830061,0.0001597,53.2169,250.5304,102.0461,258.0711,-8.6055e-05,-1.657e-05,0.0,0 STARLINK-5247,1 54203U 22141AY  24020.79261038 -.00001657  00000-0 -86055-4 0  9997,2 54203  53.2169 250.5304 0001597 102.0461 258.0711 15.08830061 68647,6917.911,95.438,540.881,538.671,0.0
54203.0,STARLINK-5247,PAYLOAD,2024-01-20 22:12:07,15.08828992,0.0001486,53.2164,249.9362,100.4707,259.6453,-9.3434e-05,-1.774e-05,0.0,0 STARLINK-5247,1 54203U 22141AY  24020.92509176 -.00001774  00000-0 -93434-4 0  9999,2 54203  53.2164 249.9362 0001486 100.4707 259.6453 15.08828992 68437,6917.914,95.438,540.807,538.751,0.0
54203.0,STARLINK-5247,PAYLOAD,2024-01-21 18:52:08,15.08842004,0.0001343,53.2162,246.071,100.314,259.8004,-5.4516e-05,-1.155e-05,0.0,0 STARLINK-5247,1 54203U 22141AY  24021.78620657 -.00001155  00000-0 -54516-4 0  9993,2 54203  53.2162 246.0710 0001343 100.3140 259.8004 15.08842004 68795,6917.874,95.437,540.668,538.81,0.0
54203.0,STARLINK-5247,PAYLOAD,2024-01-21 22:02:54,15.08847487,0.0001397,53.216,245.4762,98.0711,262.044,-7.4985e-06,-4.07e-06,0.0,0 STARLINK-5247,1 54203U 22141AY  24021.91868153 -.00000407  00000-0 -74985-5 0  9995,2 54203  53.2160 245.4762 0001397  98.0711 262.0440 15.08847487 68586,6917.858,95.437,540.689,538.756,0.0
54203.0,STARLINK-5247,PAYLOAD,2024-01-21 23:38:17,15.08848344,0.0001393,53.216,245.179,99.9841,260.1308,1.2752e-05,-8.5e-07,0.0,0 STARLINK-5247,1 54203U 22141AY  24021.98492028 -.00000085  00000-0  12752-4 0  9990,2 54203  53.2160 245.1790 0001393  99.9841 260.1308 15.08848344 68826,6917.855,95.437,540.684,538.756,0.0
54203.0,STARLINK-5247,PAYLOAD,2024-01-22 21:53:43,15.08818534,0.0001557,53.2156,241.0163,100.6291,259.4877,7.504e-05,9.06e-06,0.0,0 STARLINK-5247,1 54203U 22141AY  24022.91230497  .00000906  00000-0  75040-4 0  9994,2 54203  53.2156 241.0163 0001557 100.6291 259.4877 15.08818534 68731,6917.946,95.439,540.888,538.734,0.0
54203.0,STARLINK-5247,PAYLOAD,2024-01-23 02:39:53,15.08813846,0.0001571,53.2156,240.1247,100.3001,259.8168,1.6185e-05,-3.1e-07,0.0,0 STARLINK-5247,1 54203U 22141AY  24023.11103178 -.00000031  00000-0  16185-4 0  9997,2 54203  53.2156 240.1247 0001571 100.3001 259.8168 15.08813846 68992,6917.96,95.439,540.912,538.739,0.0
54203.0,STARLINK-5247,PAYLOAD,2024-01-23 05:50:38,15.08828441,0.0001632,53.2155,239.5297,108.3132,251.8038,0.00010795,1.43e-05,0.0,0 STARLINK-5247,1 54203U 22141AY  24023.24350123  .00001430  00000-0  10795-3 0  9998,2 54203  53.2155 239.5297 0001632 108.3132 251.8038 15.08828441 69018,6917.916,95.438,540.91,538.652,0.0
54203.0,STARLINK-5247,PAYLOAD,2024-01-23 15:22:57,15.08841423,0.0001652,53.2154,237.7455,103.4622,256.6554,4.4577e-05,4.21e-06,0.0,0 STARLINK-5247,1 54203U 22141AY  24023.64093860  .00000421  00000-0  44577-4 0  9999,2 54203  53.2154 237.7455 0001652 103.4622 256.6554 15.08841423 69072,6917.876,95.437,540.884,538.598,0.0
54203.0,STARLINK-5247,PAYLOAD,2024-01-23 21:44:29,15.08844522,0.0001623,53.2158,236.5562,99.7299,260.3876,6.9382e-05,8.16e-06,0.0,0 STARLINK-5247,1 54203U 22141AY  24023.90589552  .00000816  00000-0  69382-4 0  9995,2 54203  53.2158 236.5562 0001623  99.7299 260.3876 15.08844522 68887,6917.867,95.437,540.854,538.609,0.0
54203.0,STARLINK-5247,PAYLOAD,2024-01-24 13:38:20,15.08829768,0.0001716,53.2157,233.5823,111.36,248.7575,0.00039909,6.067e-05,0.0,0 STARLINK-5247,1 54203U 22141AY  24024.56829117  .00006067  00000-0  39909-3 0  9997,2 54203  53.2157 233.5823 0001716 111.3600 248.7575 15.08829768 68985,6917.912,95.438,540.964,538.59,0.0
54203.0,STARLINK-5247,PAYLOAD,2024-01-24 19:59:52,15.08842542,0.0001595,53.2157,232.3929,103.4777,256.6393,0.00034535,5.213e-05,0.0,0 STARLINK-5247,1 54203U 22141AY  24024.83324928  .00005213  00000-0  34535-3 0  9999,2 54203  53.2157 232.3929 0001595 103.4777 256.6393 15.08842542 69253,6917.873,95.437,540.841,538.634,0.0
54203.0,STARLINK-5247,PAYLOAD,2024-01-24 21:35:15,15.088431,0.0001604,53.2158,232.0954,101.3439,258.7733,0.00034994,5.286e-05,0.0,0 STARLINK-5247,1 54203U 22141AY  24024.89948882  .00005286  00000-0  34994-3 0  9995,2 54203  53.2158 232.0954 0001604 101.3439 258.7733 15.08843100 69030,6917.871,95.437,540.846,538.626,0.0
54203.0,STARLINK-5247,PAYLOAD,2024-01-24 23:10:38,15.08847226,0.0001657,53.2158,231.7982,101.4903,258.6275,0.00032486,4.887e-05,0.0,0 STARLINK-5247,1 54203U 22141AY  24024.96572774  .00004887  00000-0  32486-3 0  9996,2 54203  53.2158 231.7982 0001657 101.4903 258.6275 15.08847226 69046,6917.858,95.437,540.87,538.577,0.0
54203.0,STARLINK-5247,PAYLOAD,2024-01-25 19:50:40,15.08844989,0.0001736,53.2157,227.932,106.628,253.4903,3.9797e-05,3.45e-06,0.0,0 STARLINK-5247,1 54203U 22141AY  24025.82685462  .00000345  00000-0  39797-4 0  9999,2 54203  53.2157 227.9320 0001736 106.6280 253.4903 15.08844989 69405,6917.865,95.437,540.931,538.529,0.0
54203.0,STARLINK-5247,PAYLOAD,2024-01-25 23:01:26,15.08845702,0.0001749,53.2157,227.3372,106.9807,253.1377,4.2057e-05,3.81e-06,0.0,0 STARLINK-5247,1 54203U 22141AY  24025.95933304  .00000381  00000-0  42057-4 0  9997,2 54203  53.2157 227.3372 0001749 106.9807 253.1377 15.08845702 69190,6917.863,95.437,540.938,538.518,0.0
54203.0,STARLINK-5247,PAYLOAD,2024-01-26 19:41:26,15.08854768,0.0001621,53.2156,223.471,103.2593,256.858,2.2086e-05,6.4e-07,0.0,0 STARLINK-5247,1 54203U 22141AY  24026.82044184  .00000064  00000-0  22086-4 0  9991,2 54203  53.2156 223.4710 0001621 103.2593 256.8580 15.08854768 69551,6917.835,95.437,540.822,538.579,0.0
54203.0,STARLINK-5247,PAYLOAD,2024-01-27 13:10:41,15.08839314,0.0001663,53.2159,220.2007,82.2125,277.9056,1.6949e-05,-1.8e-07,0.0,0 STARLINK-5247,1 54203U 22141AY  24027.54909135 -.00000018  00000-0  16949-4 0  9998,2 54203  53.2159 220.2007 0001663  82.2125 277.9056 15.08839314 69665,6917.882,95.438,540.898,538.597,0.0
54203.0,STARLINK-5247,PAYLOAD,2024-01-27 19:32:14,15.08836498,0.0001599,53.2161,219.0105,88.5326,271.5849,-1.1039e-05,-4.64e-06,0.0,0 STARLINK-5247,1 54203U 22141AY  24027.81405319 -.00000464  00000-0 -11039-4 0  9994,2 54203  53.2161 219.0105 0001599  88.5326 271.5849 15.08836498 69472,6917.891,95.438,540.862,538.65,0.0
54203.0,STARLINK-5247,PAYLOAD,2024-01-28 11:26:05,15.08840214,0.0001683,53.217,216.0367,97.817,262.3013,-9.5653e-06,-4.4e-06,0.0,0 STARLINK-5247,1 54203U 22141AY  24028.47645033 -.00000440  00000-0 -95653-5 0  9995,2 54203  53.2170 216.0367 0001683  97.8170 262.3013 15.08840214 69576,6917.88,95.438,540.909,538.58,0.0
54203.0,STARLINK-5247,PAYLOAD,2024-01-28 19:23:00,15.08841379,0.0001664,53.2169,214.5507,95.8385,264.2797,2.3045e-05,7.9e-07,0.0,0 STARLINK-5247,1 54203U 22141AY  24028.80764810  .00000079  00000-0  23045-4 0  9998,2 54203  53.2169 214.5507 0001664  95.8385 264.2797 15.08841379 69852,6917.876,95.437,540.892,538.59,0.0
54203.0,STARLINK-5247,PAYLOAD,2024-01-29 22:24:34,15.08836961,0.0001575,53.2167,209.496,91.4198,268.6975,6.9596e-05,8.2e-06,0.0,0 STARLINK-5247,1 54203U 22141AY  24029.93373077  .00000820  00000-0  69596-4 0  9999,2 54203  53.2167 209.4960 0001575  91.4198 268.6975 15.08836961 70029,6917.89,95.438,540.844,538.665,0.0
54203.0,STARLINK-5247,PAYLOAD,2024-01-30 20:39:58,15.0883858,0.0001552,53.2165,205.3319,81.5139,278.6029,1.3142e-06,-2.67e-06,0.0,0 STARLINK-5247,1 54203U 22141AY  24030.86109387 -.00000267  00000-0  13142-5 0  9997,2 54203  53.2165 205.3319 0001552  81.5139 278.6029 15.08838580 69938,6917.885,95.438,540.823,538.676,0.0
54203.0,STARLINK-5247,PAYLOAD,2024-01-31 10:58:26,15.08835049,0.0001489,53.2162,202.6558,81.18,278.9361,5.1496e-05,5.32e-06,0.0,0 STARLINK-5247,1 54203U 22141AY  24031.45725442  .00000532  00000-0  51496-4 0  9996,2 54203  53.2162 202.6558 0001489  81.1800 278.9361 15.08835049 70256,6917.896,95.438,540.791,538.73,0.0
54203.0,STARLINK-5247,PAYLOAD,2024-02-01 10:49:13,15.0883912,0.0001491,53.2161,198.1959,80.5884,279.5276,7.058e-05,8.35e-06,0.0,0 STARLINK-5247,1 54203U 22141AY  24032.45085237  .00000835  00000-0  70580-4 0  9999,2 54203  53.2161 198.1959 0001491  80.5884 279.5276 15.08839120 70174,6917.883,95.438,540.78,538.717,0.0
54203.0,STARLINK-5247,PAYLOAD,2024-02-02 10:40:00,15.0884147,0.0001532,53.2168,193.7353,85.3087,274.808,4.3812e-05,4.09e-06,0.0,0 STARLINK-5247,1 54203U 22141AY  24033.44445107  .00000409  00000-0  43812-4 0  9990,2 54203  53.2168 193.7353 0001532  85.3087 274.8080 15.08841470 70558,6917.876,95.437,540.801,538.681,0.0
54203.0,STARLINK-5247,PAYLOAD,2024-02-02 13:50:46,15.08841648,0.0001519,53.2165,193.141,85.0515,275.065,4.3006e-05,3.97e-06,0.0,0 STARLINK-5247,1 54203U 22141AY  24033.57693070  .00000397  00000-0  43006-4 0  9999,2 54203  53.2165 193.1410 0001519  85.0515 275.0650 15.08841648 70341,6917.875,95.437,540.791,538.69,0.0
54203.0,STARLINK-5247,PAYLOAD,2024-02-02 17:01:33,15.088429,0.0001372,53.2165,192.5458,84.6333,275.4816,4.4014e-05,4.13e-06,0.0,0 STARLINK-5247,1 54203U 22141AY  24033.70941015  .00000413  00000-0  44014-4 0  9998,2 54203  53.2165 192.5458 0001372  84.6333 275.4816 15.08842900 70368,6917.872,95.437,540.686,538.787,0.0
54203.0,STARLINK-5247,PAYLOAD,2024-02-03 13:41:34,15.08836807,0.0001485,53.2173,188.6811,97.314,262.8021,-1.8603e-06,-3.18e-06,0.0,0 STARLINK-5247,1 54203U 22141AY  24034.57053524 -.00000318  00000-0 -18603-5 0  9995,2 54203  53.2173 188.6811 0001485  97.3140 262.8021 15.08836807 70499,6917.89,95.438,540.782,538.728,0.0
54203.0,STARLINK-5247,PAYLOAD,2024-02-03 15:16:57,15.08837135,0.0001503,53.2175,188.3839,98.6617,261.4546,1.4207e-07,-2.86e-06,0.0,0 STARLINK-5247,1 54203U 22141AY  24034.63677499 -.00000286  00000-0  14207-6 0  9995,2 54203  53.2175 188.3839 0001503  98.6617 261.4546 15.08837135 70731,6917.889,95.438,540.794,538.714,0.0
